NORAD_CAT_ID,OBJECT_NAME,OBJECT_TYPE,EPOCH,MEAN_MOTION,ECCENTRICITY,INCLINATION,RA_OF_ASC_NODE,ARG_OF_PERICENTER,MEAN_ANOMALY,BSTAR,MEAN_MOTION_DOT,MEAN_MOTION_DDOT,TLE_LINE0,TLE_LINE1,TLE_LINE2,SEMIMAJOR_AXIS,PERIOD,APOGEE,PERIGEE,DECAYED
55637.0,STARLINK-5062,PAYLOAD,2023-12-13 13:56:45,14.98360233,0.0002393,70.0005,84.7952,268.4584,91.6301,-0.00044512,-5.404e-05,0.0,0 STARLINK-5062,1 55637U 23021K   23347.58107977 -.00005404  00000-0 -44512-3 0  9991,2 55637  70.0005  84.7952 0002393 268.4584  91.6301 14.98360233 46390,6950.099,96.105,573.628,570.301,0.0
55637.0,STARLINK-5062,PAYLOAD,2023-12-13 17:09:00,14.98373648,0.0002496,70.0006,84.4591,266.4272,93.6601,-0.00063813,-7.707e-05,0.0,0 STARLINK-5062,1 55637U 23021K   23347.71459300 -.00007707  00000-0 -63813-3 0  9999,2 55637  70.0006  84.4591 0002496 266.4272  93.6601 14.98373648 46112,6950.058,96.104,573.658,570.188,0.0
55637.0,STARLINK-5062,PAYLOAD,2023-12-14 10:46:30,14.98327476,0.0002811,70.0013,82.6096,255.3285,104.7563,-2.0712e-05,-3.4e-06,0.0,0 STARLINK-5062,1 55637U 23021K   23348.44896787 -.00000340  00000-0 -20712-4 0  9992,2 55637  70.0013  82.6096 0002811 255.3285 104.7563 14.98327476 46223,6950.201,96.107,574.019,570.112,0.0
55637.0,STARLINK-5062,PAYLOAD,2023-12-14 13:58:46,14.98327928,0.0002779,70.0014,82.2733,256.6502,103.4348,-1.282e-05,-2.46e-06,0.0,0 STARLINK-5062,1 55637U 23021K   23348.58248799 -.00000246  00000-0 -12820-4 0  9997,2 55637  70.0014  82.2733 0002779 256.6502 103.4348 14.98327928 46541,6950.199,96.107,573.996,570.133,0.0
55637.0,STARLINK-5062,PAYLOAD,2023-12-14 15:34:55,14.98326937,0.0002771,70.0011,82.1039,257.362,102.7229,-2.8359e-05,-4.31e-06,0.0,0 STARLINK-5062,1 55637U 23021K   23348.64924842 -.00000431  00000-0 -28359-4 0  9994,2 55637  70.0011  82.1039 0002771 257.3620 102.7229 14.98326937 46557,6950.202,96.107,573.993,570.141,0.0
55637.0,STARLINK-5062,PAYLOAD,2023-12-15 12:24:39,14.98331795,0.0002827,70.0003,79.9151,253.3443,106.7406,-5.9511e-05,-8.03e-06,0.0,0 STARLINK-5062,1 55637U 23021K   23349.51712574 -.00000803  00000-0 -59511-4 0  9995,2 55637  70.0003  79.9151 0002827 253.3443 106.7406 14.98331795 46388,6950.187,96.107,574.017,570.088,0.0
55637.0,STARLINK-5062,PAYLOAD,2023-12-15 14:00:47,14.9833253,0.0002913,70.0004,79.7468,255.2751,104.8085,-3.1197e-05,-4.65e-06,0.0,0 STARLINK-5062,1 55637U 23021K   23349.58388424 -.00000465  00000-0 -31197-4 0  9999,2 55637  70.0004  79.7468 0002913 255.2751 104.8085 14.98332530 46691,6950.185,96.107,574.075,570.025,0.0
55637.0,STARLINK-5062,PAYLOAD,2023-12-15 15:36:55,14.98332304,0.0002968,70.0004,79.5785,258.3411,101.7415,-1.7011e-05,-2.96e-06,0.0,0 STARLINK-5062,1 55637U 23021K   23349.65064400 -.00000296  00000-0 -17011-4 0  9993,2 55637  70.0004  79.5785 0002968 258.3411 101.7415 14.98332304 46702,6950.186,96.107,574.114,569.988,0.0
55637.0,STARLINK-5062,PAYLOAD,2023-12-16 14:02:48,14.98327886,0.0002832,70.0007,77.2227,253.3676,106.7172,2.1764e-05,1.67e-06,0.0,0 STARLINK-5062,1 55637U 23021K   23350.58528635  .00000167  00000-0  21764-4 0  9997,2 55637  70.0007  77.2227 0002832 253.3676 106.7172 14.98327886 46848,6950.199,96.107,574.033,570.096,0.0
55637.0,STARLINK-5062,PAYLOAD,2023-12-16 15:38:56,14.98327596,0.0002844,70.0006,77.0541,255.0488,105.0357,1.6893e-05,1.09e-06,0.0,0 STARLINK-5062,1 55637U 23021K   23350.65204680  .00000109  00000-0  16893-4 0  9999,2 55637  70.0006  77.0541 0002844 255.0488 105.0357 14.98327596 46550,6950.2,96.107,574.042,570.089,0.0
55637.0,STARLINK-5062,PAYLOAD,2023-12-17 14:04:49,14.98328525,0.0002732,70.001,74.698,250.4551,109.6313,7.3349e-06,-5e-08,0.0,0 STARLINK-5062,1 55637U 23021K   23351.58668743 -.00000005  00000-0  73349-5 0  9992,2 55637  70.0010  74.6980 0002732 250.4551 109.6313 14.98328525 46994,6950.197,96.107,573.961,570.164,0.0
55637.0,STARLINK-5062,PAYLOAD,2023-12-17 15:40:57,14.98329337,0.0002732,70.001,74.5299,251.0049,109.0814,1.512e-05,8.7e-07,0.0,0 STARLINK-5062,1 55637U 23021K   23351.65344676  .00000087  00000-0  15120-4 0  9997,2 55637  70.0010  74.5299 0002732 251.0049 109.0814 14.98329337 47000,6950.195,96.107,573.959,570.161,0.0
55637.0,STARLINK-5062,PAYLOAD,2023-12-18 09:18:25,14.98339542,0.0002848,70.0005,72.6772,260.2599,99.8238,0.00010691,1.183e-05,0.0,0 STARLINK-5062,1 55637U 23021K   23352.38779534  .00001183  00000-0  10691-3 0  9998,2 55637  70.0005  72.6772 0002848 260.2599  99.8238 14.98339542 46812,6950.163,96.106,574.008,570.049,0.0
55637.0,STARLINK-5062,PAYLOAD,2023-12-18 14:06:49,14.98341087,0.0002824,70.0005,72.1723,259.4549,100.6292,0.0001202,1.342e-05,0.0,0 STARLINK-5062,1 55637U 23021K   23352.58807268  .00001342  00000-0  12020-3 0  9991,2 55637  70.0005  72.1723 0002824 259.4549 100.6292 14.98341087 47147,6950.159,96.106,573.986,570.061,0.0
55637.0,STARLINK-5062,PAYLOAD,2023-12-18 15:42:57,14.98342445,0.0002828,70.0005,72.0042,259.2439,100.8402,0.00013168,1.479e-05,0.0,0 STARLINK-5062,1 55637U 23021K   23352.65483101  .00001479  00000-0  13168-3 0  9990,2 55637  70.0005  72.0042 0002828 259.2439 100.8402 14.98342445 47155,6950.154,96.106,573.985,570.054,0.0
55637.0,STARLINK-5062,PAYLOAD,2023-12-19 09:20:27,14.98324437,0.0002984,70.0004,70.1542,256.2461,103.8366,-8.4433e-05,-1.1e-05,0.0,0 STARLINK-5062,1 55637U 23021K   23353.38920817 -.00001100  00000-0 -84433-4 0  9998,2 55637  70.0004  70.1542 0002984 256.2461 103.8366 14.98324437 46964,6950.21,96.107,574.149,570.001,0.0
55637.0,STARLINK-5062,PAYLOAD,2023-12-19 14:08:51,14.9832627,0.0002961,70.0001,69.6482,258.2026,101.8801,-5.9297e-05,-8e-06,0.0,0 STARLINK-5062,1 55637U 23021K   23353.58948673 -.00000800  00000-0 -59297-4 0  9996,2 55637  70.0001  69.6482 0002961 258.2026 101.8801 14.98326270 47297,6950.204,96.107,574.127,570.011,0.0
55637.0,STARLINK-5062,PAYLOAD,2023-12-20 10:58:36,14.9832973,0.0002709,70.0006,67.4592,262.6174,97.4677,-0.00010867,-1.389e-05,0.0,0 STARLINK-5062,1 55637U 23021K   23354.45736765 -.00001389  00000-0 -10867-3 0  9992,2 55637  70.0006  67.4592 0002709 262.6174  97.4677 14.98329730 47120,6950.194,96.107,573.942,570.176,0.0
55637.0,STARLINK-5062,PAYLOAD,2023-12-20 14:10:52,14.98334069,0.0002698,70.0006,67.1232,255.4226,104.6634,-6.9604e-05,-9.23e-06,0.0,0 STARLINK-5062,1 55637U 23021K   23354.59088307 -.00000923  00000-0 -69604-4 0  9996,2 55637  70.0006  67.1232 0002698 255.4226 104.6634 14.98334069 47443,6950.18,96.107,573.92,570.17,0.0
55637.0,STARLINK-5062,PAYLOAD,2023-12-21 14:12:53,14.98328157,0.0002637,70.0004,64.5975,261.3542,98.7319,0.00010424,1.151e-05,0.0,0 STARLINK-5062,1 55637U 23021K   23355.59228232  .00001151  00000-0  10424-3 0  9997,2 55637  70.0004  64.5975 0002637 261.3542  98.7319 14.98328157 47596,6950.199,96.107,573.896,570.231,0.0
55637.0,STARLINK-5062,PAYLOAD,2023-12-22 14:14:54,14.98332483,0.0002541,70.0009,62.0735,254.8842,105.2036,4.314e-05,4.22e-06,0.0,0 STARLINK-5062,1 55637U 23021K   23356.59368149  .00000422  00000-0  43140-4 0  9992,2 55637  70.0009  62.0735 0002541 254.8842 105.2036 14.98332483 47746,6950.185,96.107,573.816,570.284,0.0
55637.0,STARLINK-5062,PAYLOAD,2023-12-23 11:04:39,14.98326611,0.0002383,70.0011,59.8842,248.4494,111.6411,-4.8449e-05,-6.71e-06,0.0,0 STARLINK-5062,1 55637U 23021K   23357.46156663 -.00000671  00000-0 -48449-4 0  9990,2 55637  70.0011  59.8842 0002383 248.4494 111.6411 14.98326611 47573,6950.203,96.107,573.725,570.412,0.0
55637.0,STARLINK-5062,PAYLOAD,2023-12-23 14:16:55,14.98327982,0.0002603,70.0012,59.5472,257.4748,102.612,1.0643e-05,3.4e-07,0.0,0 STARLINK-5062,1 55637U 23021K   23357.59508449  .00000034  00000-0  10643-4 0  9993,2 55637  70.0012  59.5472 0002603 257.4748 102.6120 14.98327982 47891,6950.199,96.107,573.873,570.255,0.0
55637.0,STARLINK-5062,PAYLOAD,2023-12-24 03:05:59,14.98335814,0.000275,70.0001,58.1995,258.2184,101.8667,-3.9114e-05,-5.6e-06,0.0,0 STARLINK-5062,1 55637U 23021K   23358.12916037 -.00000560  00000-0 -39114-4 0  9999,2 55637  70.0001  58.1995 0002750 258.2184 101.8667 14.98335814 47676,6950.175,96.107,573.951,570.129,0.0
55637.0,STARLINK-5062,PAYLOAD,2023-12-24 14:18:55,14.98337989,0.0002764,70.0001,57.0215,260.258,99.8267,7.2054e-06,-7e-08,0.0,0 STARLINK-5062,1 55637U 23021K   23358.59647682 -.00000007  00000-0  72054-5 0  9993,2 55637  70.0001  57.0215 0002764 260.2580  99.8267 14.98337989 48046,6950.168,96.106,573.954,570.112,0.0
55637.0,STARLINK-5062,PAYLOAD,2023-12-25 03:08:00,14.98391613,0.0002707,70.0007,55.6751,267.5255,92.5594,-0.00095768,-0.00011519,0.0,0 STARLINK-5062,1 55637U 23021K   23359.13055566 -.00011519  00000-0 -95768-3 0  9994,2 55637  70.0007  55.6751 0002707 267.5255  92.5594 14.98391613 47829,6950.002,96.103,573.749,569.986,0.0
55637.0,STARLINK-5062,PAYLOAD,2023-12-25 11:08:39,14.9836942,0.0002702,70.0003,54.8333,268.0663,92.0186,-0.00064279,-7.762e-05,0.0,0 STARLINK-5062,1 55637U 23021K   23359.46435146 -.00007762  00000-0 -64279-3 0  9994,2 55637  70.0003  54.8333 0002702 268.0663  92.0186 14.98369420 47874,6950.071,96.104,573.814,570.058,0.0
55637.0,STARLINK-5062,PAYLOAD,2023-12-25 14:20:56,14.98348491,0.0002731,70.0006,54.4969,271.5543,88.5303,-0.00024702,-3.04e-05,0.0,0 STARLINK-5062,1 55637U 23021K   23359.59787386 -.00003040  00000-0 -24702-3 0  9996,2 55637  70.0006  54.4969 0002731 271.5543  88.5303 14.98348491 48198,6950.136,96.106,573.899,570.103,0.0
55637.0,STARLINK-5062,PAYLOAD,2023-12-26 11:10:41,14.98326761,0.0002481,70.0009,52.3093,257.28,102.8081,-4.091e-05,-5.81e-06,0.0,0 STARLINK-5062,1 55637U 23021K   23360.46576372 -.00000581  00000-0 -40910-4 0  9992,2 55637  70.0009  52.3093 0002481 257.2800 102.8081 14.98326761 48026,6950.203,96.107,573.792,570.344,0.0
55637.0,STARLINK-5062,PAYLOAD,2023-12-26 12:46:49,14.98356072,0.0002661,70.0009,52.1411,257.5228,102.5634,-0.00054467,-6.59e-05,0.0,0 STARLINK-5062,1 55637U 23021K   23360.53251643 -.00006590  00000-0 -54467-3 0  9998,2 55637  70.0009  52.1411 0002661 257.5228 102.5634 14.98356072 48338,6950.112,96.105,573.827,570.128,0.0
